[{"OBJECT_NAME":"OSCAR 7 (AO-7)","OBJECT_ID":"1974-089B","EPOCH":"2022-08-18T16:31:56.276256","MEAN_MOTION":12.53656352,"ECCENTRICITY":0.0011866,"INCLINATION":101.9094,"RA_OF_ASC_NODE":210.7662,"ARG_OF_PERICENTER":283.7903,"MEAN_ANOMALY":249.4868,"EPHEMERIS_TYPE":0,"CLASSIFICATION_TYPE":"U","NORAD_CAT_ID":7530,"ELEMENT_SET_NO":999,"REV_AT_EPOCH":18526,"BSTAR":0.00010934,"MEAN_MOTION_DOT":-2.9e-7,"MEAN_MOTION_DDOT":0},{"OBJECT_NAME":"PHASE 3B (AO-10)","OBJECT_ID":"1983-058B","EPOCH":"2022-08-18T10:27:12.513600","MEAN_MOTION":2.0586951,"ECCENTRICITY":0.6017263,"INCLINATION":26.4855,"RA_OF_ASC_NODE":86.1545,"ARG_OF_PERICENTER":99.0911,"MEAN_ANOMALY":329.4444,"EPHEMERIS_TYPE":0,"CLASSIFICATION_TYPE":"U","NORAD_CAT_ID":14129,"ELEMENT_SET_NO":999,"REV_AT_EPOCH":26669,"BSTAR":0,"MEAN_MOTION_DOT":-1.48e-6,"MEAN_MOTION_DDOT":0},{"OBJECT_NAME":"UOSAT 2 (UO-11)","OBJECT_ID":"1984-021B","EPOCH":"2022-08-18T18:22:34.432320","MEAN_MOTION":14.83758892,"ECCENTRICITY":0.0009855,"INCLINATION":97.6218,"RA_OF_ASC_NODE":215.3758,"ARG_OF_PERICENTER":112.8788,"MEAN_ANOMALY":247.3468,"EPHEMERIS_TYPE":0,"CLASSIFICATION_TYPE":"U","NORAD_CAT_ID":14781,"ELEMENT_SET_NO":999,"REV_AT_EPOCH":4928,"BSTAR":9.0401e-5,"MEAN_MOTION_DOT":6.98e-6,"MEAN_MOTION_DDOT":0},{"OBJECT_NAME":"LUSAT (LO-19)","OBJECT_ID":"1990-005G","EPOCH":"2022-08-18T17:30:25.609248","MEAN_MOTION":14.33078031,"ECCENTRICITY":0.0011603,"INCLINATION":98.799,"RA_OF_ASC_NODE":196.5585,"ARG_OF_PERICENTER":351.8297,"MEAN_ANOMALY":8.2696,"EPHEMERIS_TYPE":0,"CLASSIFICATION_TYPE":"U","NORAD_CAT_ID":20442,"ELEMENT_SET_NO":999,"REV_AT_EPOCH":70202,"BSTAR":5.2724e-5,"MEAN_MOTION_DOT":9.9e-7,"MEAN_MOTION_DDOT":0},{"OBJECT_NAME":"EYESAT A (AO-27)","OBJECT_ID":"1993-061C","EPOCH":"2022-08-18T22:04:10.956000","MEAN_MOTION":14.3018631,"ECCENTRICITY":0.0007666,"INCLINATION":98.8838,"RA_OF_ASC_NODE":263.2668,"ARG_OF_PERICENTER":224.4258,"MEAN_ANOMALY":135.6309,"EPHEMERIS_TYPE":0,"CLASSIFICATION_TYPE":"U","NORAD_CAT_ID":22825,"ELEMENT_SET_NO":999,"REV_AT_EPOCH":50708,"BSTAR":3.614e-5,"MEAN_MOTION_DOT":4.7e-7,"MEAN_MOTION_DDOT":0},{"OBJECT_NAME":"ITAMSAT (IO-26)","OBJECT_ID":"1993-061D","EPOCH":"2022-08-18T08:50:04.604640","MEAN_MOTION":14.30533865,"ECCENTRICITY":0.0008374,"INCLINATION":98.8782,"RA_OF_ASC_NODE":262.5793,"ARG_OF_PERICENTER":211.8571,"MEAN_ANOMALY":148.2105,"EPHEMERIS_TYPE":0,"CLASSIFICATION_TYPE":"U","NORAD_CAT_ID":22826,"ELEMENT_SET_NO":999,"REV_AT_EPOCH":50751,"BSTAR":4.0874e-5,"MEAN_MOTION_DOT":6.0e-7,"MEAN_MOTION_DDOT":0},{"OBJECT_NAME":"RADIO ROSTO (RS-15)","OBJECT_ID":"1994-085A","EPOCH":"2022-08-18T22:09:43.958880","MEAN_MOTION":11.27571916,"ECCENTRICITY":0.0167812,"INCLINATION":64.8125,"RA_OF_ASC_NODE":44.5731,"ARG_OF_PERICENTER":261.8541,"MEAN_ANOMALY":96.3315,"EPHEMERIS_TYPE":0,"CLASSIFICATION_TYPE":"U","NORAD_CAT_ID":23439,"ELEMENT_SET_NO":999,"REV_AT_EPOCH":13853,"BSTAR":0.0001,"MEAN_MOTION_DOT":-3.9e-7,"MEAN_MOTION_DDOT":0},{"OBJECT_NAME":"JAS-2 (FO-29)","OBJECT_ID":"1996-046B","EPOCH":"2022-08-18T20:12:00.603360","MEAN_MOTION":13.53118888,"ECCENTRICITY":0.0351263,"INCLINATION":98.5155,"RA_OF_ASC_NODE":245.9486,"ARG_OF_PERICENTER":121.3398,"MEAN_ANOMALY":242.2623,"EPHEMERIS_TYPE":0,"CLASSIFICATION_TYPE":"U","NORAD_CAT_ID":24278,"ELEMENT_SET_NO":999,"REV_AT_EPOCH":28404,"BSTAR":2.0874e-6,"MEAN_MOTION_DOT":-3.0e-7,"MEAN_MOTION_DDOT":0},{"OBJECT_NAME":"TECHSAT 1B (GO-32)","OBJECT_ID":"1998-043D","EPOCH":"2022-08-18T14:57:12.167136","MEAN_MOTION":14.23766148,"ECCENTRICITY":4.9e-5,"INCLINATION":98.8213,"RA_OF_ASC_NODE":181.2681,"ARG_OF_PERICENTER":349.627,"MEAN_ANOMALY":10.4898,"EPHEMERIS_TYPE":0,"CLASSIFICATION_TYPE":"U","NORAD_CAT_ID":25397,"ELEMENT_SET_NO":999,"REV_AT_EPOCH":25227,"BSTAR":3.659e-5,"MEAN_MOTION_DOT":3.9e-7,"MEAN_MOTION_DDOT":0},{"OBJECT_NAME":"ISS (ZARYA)","OBJECT_ID":"1998-067A","EPOCH":"2022-08-19T08:07:09.948576","MEAN_MOTION":15.50228062,"ECCENTRICITY":0.0005524,"INCLINATION":51.6438,"RA_OF_ASC_NODE":23.7306,"ARG_OF_PERICENTER":137.171,"MEAN_ANOMALY":62.1113,"EPHEMERIS_TYPE":0,"CLASSIFICATION_TYPE":"U","NORAD_CAT_ID":25544,"ELEMENT_SET_NO":999,"REV_AT_EPOCH":35497,"BSTAR":9.3573e-5,"MEAN_MOTION_DOT":4.93e-5,"MEAN_MOTION_DDOT":0},{"OBJECT_NAME":"PCSAT (NO-44)","OBJECT_ID":"2001-043C","EPOCH":"2022-08-18T12:40:52.495104","MEAN_MOTION":14.30724632,"ECCENTRICITY":0.0006786,"INCLINATION":67.0493,"RA_OF_ASC_NODE":258.1703,"ARG_OF_PERICENTER":257.5333,"MEAN_ANOMALY":102.5009,"EPHEMERIS_TYPE":0,"CLASSIFICATION_TYPE":"U","NORAD_CAT_ID":26931,"ELEMENT_SET_NO":999,"REV_AT_EPOCH":9028,"BSTAR":4.4169e-5,"MEAN_MOTION_DOT":3.3e-7,"MEAN_MOTION_DDOT":0},{"OBJECT_NAME":"SAUDISAT 1C (SO-50)","OBJECT_ID":"2002-058C","EPOCH":"2022-08-19T02:56:07.112256","MEAN_MOTION":14.76205741,"ECCENTRICITY":0.0080827,"INCLINATION":64.5545,"RA_OF_ASC_NODE":110.1152,"ARG_OF_PERICENTER":282.4117,"MEAN_ANOMALY":76.7949,"EPHEMERIS_TYPE":0,"CLASSIFICATION_TYPE":"U","NORAD_CAT_ID":27607,"ELEMENT_SET_NO":999,"REV_AT_EPOCH":5783,"BSTAR":8.5346e-5,"MEAN_MOTION_DOT":4.74e-6,"MEAN_MOTION_DDOT":0},{"OBJECT_NAME":"CUTE-1 (CO-55)","OBJECT_ID":"2003-031E","EPOCH":"2022-08-18T19:38:08.873664","MEAN_MOTION":14.22481216,"ECCENTRICITY":0.0008657,"INCLINATION":98.6797,"RA_OF_ASC_NODE":237.5648,"ARG_OF_PERICENTER":283.7238,"MEAN_ANOMALY":76.2976,"EPHEMERIS_TYPE":0,"CLASSIFICATION_TYPE":"U","NORAD_CAT_ID":27844,"ELEMENT_SET_NO":999,"REV_AT_EPOCH":99273,"BSTAR":0.00010968,"MEAN_MOTION_DOT":2.01e-6,"MEAN_MOTION_DDOT":0},{"OBJECT_NAME":"CUBESAT XI-IV (CO-57)","OBJECT_ID":"2003-031J","EPOCH":"2022-08-18T22:35:33.744192","MEAN_MOTION":14.22034602,"ECCENTRICITY":0.0008668,"INCLINATION":98.6842,"RA_OF_ASC_NODE":238.1928,"ARG_OF_PERICENTER":299.3153,"MEAN_ANOMALY":60.7158,"EPHEMERIS_TYPE":0,"CLASSIFICATION_TYPE":"U","NORAD_CAT_ID":27848,"ELEMENT_SET_NO":999,"REV_AT_EPOCH":99259,"BSTAR":9.4021e-5,"MEAN_MOTION_DOT":1.64e-6,"MEAN_MOTION_DDOT":0},{"OBJECT_NAME":"MOZHAYETS 4 (RS-22)","OBJECT_ID":"2003-042A","EPOCH":"2022-08-19T01:31:04.374912","MEAN_MOTION":14.67428313,"ECCENTRICITY":0.0013039,"INCLINATION":98.2011,"RA_OF_ASC_NODE":11.7974,"ARG_OF_PERICENTER":16.7334,"MEAN_ANOMALY":343.4276,"EPHEMERIS_TYPE":0,"CLASSIFICATION_TYPE":"U","NORAD_CAT_ID":27939,"ELEMENT_SET_NO":999,"REV_AT_EPOCH":1022,"BSTAR":9.8596e-5,"MEAN_MOTION_DOT":5.08e-6,"MEAN_MOTION_DDOT":0},{"OBJECT_NAME":"CUBESAT XI-V","OBJECT_ID":"2005-043F","EPOCH":"2022-08-18T08:32:51.995904","MEAN_MOTION":14.64430692,"ECCENTRICITY":0.0015504,"INCLINATION":98.1143,"RA_OF_ASC_NODE":0.8093,"ARG_OF_PERICENTER":309.3332,"MEAN_ANOMALY":50.6496,"EPHEMERIS_TYPE":0,"CLASSIFICATION_TYPE":"U","NORAD_CAT_ID":28895,"ELEMENT_SET_NO":999,"REV_AT_EPOCH":89670,"BSTAR":0.00016075,"MEAN_MOTION_DOT":8.04e-6,"MEAN_MOTION_DDOT":0},{"OBJECT_NAME":"FALCONSAT-3","OBJECT_ID":"2007-006E","EPOCH":"2022-08-18T15:31:10.288704","MEAN_MOTION":15.57529954,"ECCENTRICITY":0.0004457,"INCLINATION":35.4293,"RA_OF_ASC_NODE":211.6072,"ARG_OF_PERICENTER":255.3217,"MEAN_ANOMALY":104.7022,"EPHEMERIS_TYPE":0,"CLASSIFICATION_TYPE":"U","NORAD_CAT_ID":30776,"ELEMENT_SET_NO":999,"REV_AT_EPOCH":85927,"BSTAR":0.00057861,"MEAN_MOTION_DOT":0.00044211,"MEAN_MOTION_DDOT":0}]